OBJECT_NAME,OBJECT_ID,EPOCH,MEAN_MOTION,ECCENTRICITY,INCLINATION,RA_OF_ASC_NODE,ARG_OF_PERICENTER,MEAN_ANOMALY,EPHEMERIS_TYPE,CLASSIFICATION_TYPE,NORAD_CAT_ID,ELEMENT_SET_NO,REV_AT_EPOCH,BSTAR,MEAN_MOTION_DOT,MEAN_MOTION_DDOT
IRIDIUM 135,2017-083A,2026-07-01T02:31:35.227776,14.34217259,.00020978,86.3974,316.1966,92.9791,267.1644,0,U,43070,999,44614,-.1371169E-4,-.19E-6,0
IRIDIUM 138,2017-083B,2026-07-01T03:08:07.210464,14.34217386,.00020584,86.3986,315.8836,87.5640,272.5791,0,U,43071,999,44613,-.808508E-5,-.3E-7,0
IRIDIUM 116,2017-083C,2026-07-01T10:44:47.216544,14.34217412,.00021462,86.3972,316.0391,101.5869,258.5568,0,U,43072,999,44621,-.6867506E-5,.1E-7,0
IRIDIUM 130,2017-083D,2026-07-01T03:17:15.090144,14.34217688,.00020497,86.3985,316.4455,98.0449,262.0980,0,U,43073,999,44611,.21947822E-4,.81E-6,0
IRIDIUM 151,2017-083E,2026-07-01T11:03:03.193632,14.34217593,.00021075,86.3975,316.0919,94.1896,265.9541,0,U,43074,999,44618,-.403397E-6,.19E-6,0
IRIDIUM 134,2017-083F,2026-07-01T06:56:27.088224,14.34217683,.00021743,86.3980,316.1713,95.0317,265.1127,0,U,43075,999,44612,.53356185E-4,.169E-5,0
IRIDIUM 137,2017-083G,2026-07-01T10:35:39.251328,14.34217675,.00025776,86.3981,316.2009,99.6764,260.4723,0,U,43076,999,44621,.744884E-6,.22E-6,0
IRIDIUM 141,2017-083H,2026-07-01T10:26:31.174656,14.34217624,.00020655,86.3973,316.0336,91.7888,268.3545,0,U,43077,999,44621,.834777E-6,.22E-6,0
IRIDIUM 153,2017-083J,2026-07-01T05:56:43.428768,14.34217740,.00021728,86.3968,284.5924,91.5904,268.5540,0,U,43078,999,44729,.7939841E-5,.42E-6,0
IRIDIUM 131,2017-083K,2026-07-01T06:47:19.186080,14.34218439,.00022382,86.3983,316.2838,93.0024,267.1428,0,U,43079,999,44612,.89112865E-4,.269E-5,0
IRIDIUM 144,2018-030A,2026-07-01T06:05:51.381024,14.34217183,.00022409,86.3965,284.5185,98.0635,262.0815,0,U,43249,999,43215,.29491882E-4,.102E-5,0
IRIDIUM 149,2018-030B,2026-07-01T06:14:59.485344,14.34217180,.00021766,86.3959,284.4827,93.5317,266.6128,0,U,43250,999,43217,-.175882E-4,-.29E-6,0
IRIDIUM 157,2018-030C,2026-07-01T06:42:23.444928,14.34217896,.00022323,86.3964,284.5279,94.6404,265.5047,0,U,43251,999,43215,.50311523E-4,.161E-5,0
IRIDIUM 140,2018-030D,2026-07-01T07:09:47.443392,14.34217544,.00021935,86.3965,284.5328,95.5759,264.5687,0,U,43252,999,43221,.1770195E-4,.69E-6,0
IRIDIUM 145,2018-030E,2026-07-01T06:51:30.317184,14.34221767,.00022756,86.3965,284.5103,102.5733,257.5718,0,U,43253,999,43214,.1750042E-4,.69E-6,0
IRIDIUM 146,2018-030F,2026-07-01T06:24:07.479936,14.34217337,.00021532,86.3962,284.5307,97.9394,262.2047,0,U,43254,999,43215,-.8988949E-5,-.5E-7,0
IRIDIUM 148,2018-030G,2026-07-01T07:18:55.474272,14.34217421,.00022377,86.3963,284.5580,95.4731,264.6720,0,U,43255,999,43219,-.8055716E-5,-.3E-7,0
IRIDIUM 142,2018-030H,2026-07-01T06:33:15.464160,14.34217390,.0002172,86.3959,284.4596,99.6063,260.5379,0,U,43256,999,43215,-.9683656E-5,-.7E-7,0
IRIDIUM 150,2018-030J,2026-07-01T07:28:03.452448,14.34217604,.00021824,86.3966,284.5605,96.4171,263.7274,0,U,43257,999,43218,.39342456E-4,.13E-5,0
IRIDIUM 143,2018-030K,2026-07-01T07:00:39.035808,14.34217755,.00022792,86.3967,284.6613,98.8370,261.3084,0,U,43258,999,43211,.89404715E-4,.27E-5,0
IRIDIUM 161,2018-047C,2026-07-01T05:50:08.601504,14.43280316,.00024624,86.4477,82.5943,80.3323,279.8156,0,U,43478,999,42716,.10859561E-3,.385E-5,0
IRIDIUM 152,2018-047D,2026-07-01T06:21:22.765248,14.34213374,.00021838,86.3954,82.4462,80.2816,279.8626,0,U,43479,999,42450,-.16895501E-3,-.453E-5,0
IRIDIUM 147,2018-047E,2026-07-01T06:30:29.969280,14.34219544,.00022317,86.3954,82.4491,87.3845,272.7607,0,U,43480,999,42450,.61173961E-4,.191E-5,0
IRIDIUM 110,2018-047F,2026-07-01T06:39:38.291328,14.34217845,.00023954,86.3955,82.5388,76.9857,283.1606,0,U,43481,999,42449,.14364596E-4,.6E-6,0
IRIDIUM 162,2018-047G,2026-07-01T15:40:05.096064,14.43282040,.00022363,86.4475,82.3137,83.0994,277.0462,0,U,43482,999,42721,.95052779E-4,.34E-5,0
IRIDIUM 160,2018-061A,2026-07-01T15:24:26.463744,14.34217631,.00021404,86.3947,50.7522,85.6518,274.4923,0,U,43569,999,41544,-.1702962E-5,.15E-6,0
IRIDIUM 166,2018-061B,2026-07-01T09:19:06.427776,14.34218125,.00020978,86.3948,50.8088,88.2559,271.8877,0,U,43570,999,41543,.78481424E-4,.24E-5,0
IRIDIUM 158,2018-061C,2026-07-01T15:15:18.461376,14.34217443,.00020068,86.3944,50.7149,83.8802,276.2622,0,U,43571,999,41543,-.2697614E-5,.12E-6,0
IRIDIUM 165,2018-061D,2026-07-01T09:09:58.476384,14.34217738,.00021584,86.3949,50.8681,89.9047,270.2396,0,U,43572,999,41542,.15820723E-4,.64E-6,0
IRIDIUM 155,2018-061E,2026-07-01T14:57:02.439360,14.34217505,.00019471,86.3945,50.6354,85.3483,274.7936,0,U,43573,999,41542,-.81461E-5,-.3E-7,0
