IRIDIUM 135             
1 43070U 17083A   26182.10526884 -.00000019  00000+0 -13712-4 0  9995
2 43070  86.3974 316.1966 0002097  92.9791 267.1644 14.34217259446147
IRIDIUM 138             
1 43071U 17083B   26182.13063901 -.00000003  00000+0 -80851-5 0  9997
2 43071  86.3986 315.8836 0002058  87.5640 272.5791 14.34217386446136
IRIDIUM 116             
1 43072U 17083C   26182.44776871  .00000001  00000+0 -68675-5 0  9996
2 43072  86.3972 316.0391 0002146 101.5869 258.5568 14.34217412446214
IRIDIUM 130             
1 43073U 17083D   26182.13698021  .00000081  00000+0  21948-4 0  9991
2 43073  86.3985 316.4455 0002049  98.0449 262.0980 14.34217688446112
IRIDIUM 151             
1 43074U 17083E   26182.46045363  .00000019  00000+0 -40340-6 0  9994
2 43074  86.3975 316.0919 0002107  94.1896 265.9541 14.34217593446188
IRIDIUM 134             
1 43075U 17083F   26182.28920241  .00000169  00000+0  53356-4 0  9996
2 43075  86.3980 316.1713 0002174  95.0317 265.1127 14.34217683446126
IRIDIUM 137             
1 43076U 17083G   26182.44142652  .00000022  00000+0  74488-6 0  9996
2 43076  86.3981 316.2009 0002577  99.6764 260.4723 14.34217675446211
IRIDIUM 141             
1 43077U 17083H   26182.43508304  .00000022  00000+0  83478-6 0  9995
2 43077  86.3973 316.0336 0002065  91.7888 268.3545 14.34217624446219
IRIDIUM 153             
1 43078U 17083J   26182.24772487  .00000042  00000+0  79398-5 0  9997
2 43078  86.3968 284.5924 0002172  91.5904 268.5540 14.34217740447297
IRIDIUM 131             
1 43079U 17083K   26182.28286095  .00000269  00000+0  89113-4 0  9993
2 43079  86.3983 316.2838 0002238  93.0024 267.1428 14.34218439446122
IRIDIUM 144             
1 43249U 18030A   26182.25406691  .00000102  00000+0  29492-4 0  9998
2 43249  86.3965 284.5185 0002240  98.0635 262.0815 14.34217183432156
IRIDIUM 149             
1 43250U 18030B   26182.26041071 -.00000029  00000+0 -17588-4 0  9991
2 43250  86.3959 284.4827 0002176  93.5317 266.6128 14.34217180432174
IRIDIUM 157             
1 43251U 18030C   26182.27943802  .00000161  00000+0  50312-4 0  9993
2 43251  86.3964 284.5279 0002232  94.6404 265.5047 14.34217896432155
IRIDIUM 140             
1 43252U 18030D   26182.29846578  .00000069  00000+0  17702-4 0  9991
2 43252  86.3965 284.5328 0002193  95.5759 264.5687 14.34217544432217
IRIDIUM 145             
1 43253U 18030E   26182.28576756  .00000069  00000+0  17500-4 0  9995
2 43253  86.3965 284.5103 0002275 102.5733 257.5718 14.34221767432142
IRIDIUM 146             
1 43254U 18030F   26182.26675324 -.00000005  00000+0 -89889-5 0  9997
2 43254  86.3962 284.5307 0002153  97.9394 262.2047 14.34217337432158
IRIDIUM 148             
1 43255U 18030G   26182.30480873 -.00000003  00000+0 -80557-5 0  9997
2 43255  86.3963 284.5580 0002237  95.4731 264.6720 14.34217421432196
IRIDIUM 142             
1 43256U 18030H   26182.27309565 -.00000007  00000+0 -96837-5 0  9994
2 43256  86.3959 284.4596 0002172  99.6063 260.5379 14.34217390432156
IRIDIUM 150             
1 43257U 18030J   26182.31115107  .00000130  00000+0  39342-4 0  9999
2 43257  86.3966 284.5605 0002182  96.4171 263.7274 14.34217604432183
IRIDIUM 143             
1 43258U 18030K   26182.29211847  .00000270  00000+0  89405-4 0  9995
2 43258  86.3967 284.6613 0002279  98.8370 261.3084 14.34217755432112
IRIDIUM 161             
1 43478U 18047C   26182.24315511  .00000385  00000+0  10860-3 0  9990
2 43478  86.4477  82.5943 0002462  80.3323 279.8156 14.43280316427168
IRIDIUM 152             
1 43479U 18047D   26182.26484682 -.00000453  00000+0 -16896-3 0  9992
2 43479  86.3954  82.4462 0002183  80.2816 279.8626 14.34213374424506
IRIDIUM 147             
1 43480U 18047E   26182.27118020  .00000191  00000+0  61174-4 0  9992
2 43480  86.3954  82.4491 0002231  87.3845 272.7607 14.34219544424500
IRIDIUM 110             
1 43481U 18047F   26182.27752652  .00000060  00000+0  14365-4 0  9993
2 43481  86.3955  82.5388 0002395  76.9857 283.1606 14.34217845424491
IRIDIUM 162             
1 43482U 18047G   26182.65283676  .00000340  00000+0  95053-4 0  9995
2 43482  86.4475  82.3137 0002236  83.0994 277.0462 14.43282040427219
IRIDIUM 160             
1 43569U 18061A   26182.64197296  .00000015  00000+0 -17030-5 0  9998
2 43569  86.3947  50.7522 0002140  85.6518 274.4923 14.34217631415448
IRIDIUM 166             
1 43570U 18061B   26182.38826884  .00000240  00000+0  78481-4 0  9998
2 43570  86.3948  50.8088 0002097  88.2559 271.8877 14.34218125415431
IRIDIUM 158             
1 43571U 18061C   26182.63563034  .00000012  00000+0 -26976-5 0  9993
2 43571  86.3944  50.7149 0002006  83.8802 276.2622 14.34217443415436
IRIDIUM 165             
1 43572U 18061D   26182.38192681  .00000064  00000+0  15821-4 0  9994
2 43572  86.3949  50.8681 0002158  89.9047 270.2396 14.34217738415428
IRIDIUM 155             
1 43573U 18061E   26182.62294490 -.00000003  00000+0 -81461-5 0  9992
2 43573  86.3945  50.6354 0001947  85.3483 274.7936 14.34217505415420
